COMMENT,ORIGINATOR,NORAD_CAT_ID,OBJECT_NAME,OBJECT_TYPE,CLASSIFICATION_TYPE,INTLDES,EPOCH,EPOCH_MICROSECONDS,MEAN_MOTION,ECCENTRICITY,INCLINATION,RA_OF_ASC_NODE,ARG_OF_PERICENTER,MEAN_ANOMALY,EPHEMERIS_TYPE,ELEMENT_SET_NO,REV_AT_EPOCH,BSTAR,MEAN_MOTION_DOT,MEAN_MOTION_DDOT,FILE,TLE_LINE0,TLE_LINE1,TLE_LINE2,OBJECT_ID,OBJECT_NUMBER,SEMIMAJOR_AXIS,PERIOD,APOGEE,PERIGEE,DECAYED,date
GENERATED VIA SPACETRACK.ORG API,18 SPCS,48884,SPACEBEE-101,PAYLOAD,U,21059F,2023/2/13 7:32,642016,15.22404388,0.000778,97.5769,178.9436,346.8268,13.2764,0,999,9047,0.0016649,0.00038594,0,3789366,0 SPACEBEE-101,1 48884U 21059F   23044.31395419  .00038594  00000-0  16649-2 0  9994,2 48884  97.5769 178.9436 0007780 346.8268  13.2764 15.22404388 90474,2021-059F,48884,6876.728,94.587,503.943,493.243,0,2023/4/3
GENERATED VIA SPACETRACK.ORG API,18 SPCS,48884,SPACEBEE-101,PAYLOAD,U,21059F,2023/2/13 20:09,848064,15.2244363,0.000778,97.577,179.4739,345.138,14.9627,0,999,9055,0.0015832,0.0003673,0,3789532,0 SPACEBEE-101,1 48884U 21059F   23044.83976676  .00036730  00000-0  15832-2 0  9994,2 48884  97.5770 179.4739 0007780 345.1380  14.9627 15.22443630 90553,2021-059F,48884,6876.609,94.585,503.824,493.124,0,2023/4/4
GENERATED VIA SPACETRACK.ORG API,18 SPCS,48884,SPACEBEE-101,PAYLOAD,U,21059F,2023/2/14 15:04,57184,15.22499831,0.0007736,97.5771,180.2693,342.984,17.1135,0,999,9067,0.0015935,0.00037032,0,3791349,0 SPACEBEE-101,1 48884U 21059F   23045.62846131  .00037032  00000-0  15935-2 0  9994,2 48884  97.5771 180.2693 0007736 342.9840  17.1135 15.22499831 90676,2021-059F,48884,6876.44,94.581,503.625,492.986,0,2023/4/5
GENERATED VIA SPACETRACK.ORG API,18 SPCS,48884,SPACEBEE-101,PAYLOAD,U,21059F,2023/2/14 22:58,330112,15.2252105,0.0007733,97.5771,180.6007,341.7004,18.3953,0,999,9072,0.0014605,0.00033942,0,3792253,0 SPACEBEE-101,1 48884U 21059F   23045.95707558  .00033942  00000-0  14605-2 0  9998,2 48884  97.5771 180.6007 0007733 341.7004  18.3953 15.22521050 90721,2021-059F,48884,6876.376,94.58,503.559,492.924,0,2023/4/6
GENERATED VIA SPACETRACK.ORG API,18 SPCS,48884,SPACEBEE-101,PAYLOAD,U,21059F,2023/2/15 14:44,497024,15.22576973,0.0007748,97.5769,181.2635,339.0029,21.0888,0,999,9082,0.0019322,0.00045069,0,3793706,0 SPACEBEE-101,1 48884U 21059F   23046.61428816  .00045069  00000-0  19322-2 0  9993,2 48884  97.5769 181.2635 0007748 339.0029  21.0888 15.22576973 90828,2021-059F,48884,6876.208,94.576,503.401,492.745,0,2023/4/7
GENERATED VIA SPACETRACK.ORG API,18 SPCS,48884,SPACEBEE-101,PAYLOAD,U,21059F,2023/2/15 14:44,497024,15.22576973,0.0007748,97.5769,181.2635,339.0029,21.0888,0,999,9082,0.0019322,0.00045069,0,3793903,0 SPACEBEE-101,1 48884U 21059F   23046.61428816  .00045069  00000-0  19322-2 0  9993,2 48884  97.5769 181.2635 0007748 339.0029  21.0888 15.22576973 90828,2021-059F,48884,6876.208,94.576,503.401,492.745,0,2023/4/8
GENERATED VIA SPACETRACK.ORG API,18 SPCS,48884,SPACEBEE-101,PAYLOAD,U,21059F,2023/2/15 21:03,144128,15.22599961,0.0007748,97.5768,181.5285,337.9526,22.1375,0,999,9086,0.0018951,0.00044228,0,3795153,0 SPACEBEE-101,1 48884U 21059F   23046.87716602  .00044228  00000-0  18951-2 0  9997,2 48884  97.5768 181.5285 0007748 337.9526  22.1375 15.22599961 90869,2021-059F,48884,6876.139,94.575,503.331,492.676,0,2023/4/9
GENERATED VIA SPACETRACK.ORG API,18 SPCS,48884,SPACEBEE-101,PAYLOAD,U,21059F,2023/2/16 14:24,139072,15.22664153,0.0007764,97.5767,182.2576,335.0208,25.0652,0,999,9097,0.001907,0.00044592,0,3798293,0 SPACEBEE-101,1 48884U 21059F   23047.60005948  .00044592  00000-0  19070-2 0  9990,2 48884  97.5767 182.2576 0007764 335.0208  25.0652 15.22664153 90971,2021-059F,48884,6875.945,94.571,503.149,492.472,0,2023/4/10
GENERATED VIA SPACETRACK.ORG API,18 SPCS,48884,SPACEBEE-101,PAYLOAD,U,21059F,2023/2/16 22:17,260128,15.22692118,0.0007779,97.5766,182.5891,333.7826,26.3015,0,999,9102,0.0017928,0.00041937,0,3799813,0 SPACEBEE-101,1 48884U 21059F   23047.92863727  .00041937  00000-0  17928-2 0  9992,2 48884  97.5766 182.5891 0007779 333.7826  26.3015 15.22692118 91026,2021-059F,48884,6875.861,94.569,503.075,492.378,0,2023/4/11
GENERATED VIA SPACETRACK.ORG API,18 SPCS,48884,SPACEBEE-101,PAYLOAD,U,21059F,2023/2/17 14:03,201056,15.22735713,0.00078,97.5772,183.2523,331.5904,28.4906,0,999,9112,0.001407,0.00032899,0,3802730,0 SPACEBEE-101,1 48884U 21059F   23048.58577779  .00032899  00000-0  14070-2 0  9996,2 48884  97.5772 183.2523 0007800 331.5904  28.4906 15.22735713 91123,2021-059F,48884,6875.73,94.567,502.958,492.232,0,2023/4/12
GENERATED VIA SPACETRACK.ORG API,18 SPCS,48884,SPACEBEE-101,PAYLOAD,U,21059F,2023/2/17 14:03,201056,15.22735713,0.00078,97.5772,183.2523,331.5904,28.4906,0,999,9112,0.001407,0.00032899,0,3802936,0 SPACEBEE-101,1 48884U 21059F   23048.58577779  .00032899  00000-0  14070-2 0  9996,2 48884  97.5772 183.2523 0007800 331.5904  28.4906 15.22735713 91123,2021-059F,48884,6875.73,94.567,502.958,492.232,0,2023/4/13
GENERATED VIA SPACETRACK.ORG API,18 SPCS,48884,SPACEBEE-101,PAYLOAD,U,21059F,2023/2/17 20:22,549056,15.22750494,0.0007817,97.5773,183.5176,330.7329,29.3469,0,999,9116,0.0012255,0.00028642,0,3804075,0 SPACEBEE-101,1 48884U 21059F   23048.84862904  .00028642  00000-0  12255-2 0  9996,2 48884  97.5773 183.5176 0007817 330.7329  29.3469 15.22750494 91162,2021-059F,48884,6875.686,94.566,502.925,492.176,0,2023/4/14
GENERATED VIA SPACETRACK.ORG API,18 SPCS,48884,SPACEBEE-101,PAYLOAD,U,21059F,2023/2/18 7:24,125184,15.22775021,0.0007806,97.5775,183.9817,329.2904,30.7875,0,999,9123,0.0011209,0.00026202,0,3807124,0 SPACEBEE-101,1 48884U 21059F   23049.30861256  .00026202  00000-0  11209-2 0  9995,2 48884  97.5775 183.9817 0007806 329.2904  30.7875 15.22775021 91238,2021-059F,48884,6875.612,94.564,502.844,492.11,0,2023/4/15
GENERATED VIA SPACETRACK.ORG API,18 SPCS,48884,SPACEBEE-101,PAYLOAD,U,21059F,2023/2/18 15:17,252992,15.227945,0.0007756,97.5777,184.3131,328.2249,31.8518,0,999,9128,0.0011748,0.00027485,0,3807326,0 SPACEBEE-101,1 48884U 21059F   23049.63716728  .00027485  00000-0  11748-2 0  9996,2 48884  97.5777 184.3131 0007756 328.2249  31.8518 15.22794500 91283,2021-059F,48884,6875.553,94.563,502.751,492.085,0,2023/4/16
GENERATED VIA SPACETRACK.ORG API,18 SPCS,48884,SPACEBEE-101,PAYLOAD,U,21059F,2023/2/19 14:56,710560,15.22845845,0.0007693,97.578,185.3076,324.44,35.6323,0,999,9143,0.0010733,0.00025134,0,3811610,0 SPACEBEE-101,1 48884U 21059F   23050.62280915  .00025134  00000-0  10733-2 0  9993,2 48884  97.5780 185.3076 0007693 324.4400  35.6323 15.22845845 91435,2021-059F,48884,6875.399,94.56,502.553,491.974,0,2023/4/17
GENERATED VIA SPACETRACK.ORG API,18 SPCS,48884,SPACEBEE-101,PAYLOAD,U,21059F,2023/2/19 19:40,313152,15.22855135,0.0007686,97.5781,185.5065,323.554,36.5173,0,999,9146,0.0010557,0.00024726,0,3811900,0 SPACEBEE-101,1 48884U 21059F   23050.81993418  .00024726  00000-0  10557-2 0  9993,2 48884  97.5781 185.5065 0007686 323.5540  36.5173 15.22855135 91462,2021-059F,48884,6875.371,94.559,502.52,491.951,0,2023/4/18
GENERATED VIA SPACETRACK.ORG API,18 SPCS,48884,SPACEBEE-101,PAYLOAD,U,21059F,2023/2/20 8:17,191136,15.22883027,0.0007759,97.5784,186.0368,321.8565,38.2121,0,999,9154,0.0010716,0.00025122,0,3815761,0 SPACEBEE-101,1 48884U 21059F   23051.34559249  .00025122  00000-0  10716-2 0  9990,2 48884  97.5784 186.0368 0007759 321.8565  38.2121 15.22883027 91548,2021-059F,48884,6875.287,94.557,502.486,491.817,0,2023/4/19
GENERATED VIA SPACETRACK.ORG API,18 SPCS,48884,SPACEBEE-101,PAYLOAD,U,21059F,2023/2/20 22:29,299424,15.22912956,0.0007779,97.5788,186.6331,319.5217,40.544,0,999,9163,0.0010951,0.00025699,0,3817784,0 SPACEBEE-101,1 48884U 21059F   23051.93694791  .00025699  00000-0  10951-2 0  9997,2 48884  97.5788 186.6331 0007779 319.5217  40.5440 15.22912956 91632,2021-059F,48884,6875.197,94.556,502.41,491.713,0,2023/4/20
GENERATED VIA SPACETRACK.ORG API,18 SPCS,48884,SPACEBEE-101,PAYLOAD,U,21059F,2023/2/21 7:56,704032,15.22937426,0.0007848,97.5789,187.0309,318.3713,41.6925,0,999,9169,0.0012052,0.00028321,0,3819803,0 SPACEBEE-101,1 48884U 21059F   23052.33117713  .00028321  00000-0  12052-2 0  9995,2 48884  97.5789 187.0309 0007848 318.3713  41.6925 15.22937426 91693,2021-059F,48884,6875.123,94.554,502.384,491.592,0,2023/4/21
GENERATED VIA SPACETRACK.ORG API,18 SPCS,48884,SPACEBEE-101,PAYLOAD,U,21059F,2023/2/21 20:33,61728,15.22972483,0.0007807,97.5792,187.5614,316.1454,43.9162,0,999,9177,0.0013185,0.00031034,0,3821329,0 SPACEBEE-101,1 48884U 21059F   23052.85680627  .00031034  00000-0  13185-2 0  9994,2 48884  97.5792 187.5614 0007807 316.1454  43.9162 15.22972483 91773,2021-059F,48884,6875.017,94.552,502.25,491.515,0,2023/4/22
GENERATED VIA SPACETRACK.ORG API,18 SPCS,48884,SPACEBEE-101,PAYLOAD,U,21059F,2023/2/21 22:08,792288,15.22976359,0.0007804,97.5793,187.6277,315.9908,44.0706,0,999,9178,0.0013208,0.00031092,0,3821607,0 SPACEBEE-101,1 48884U 21059F   23052.92250917  .00031092  00000-0  13208-2 0  9997,2 48884  97.5793 187.6277 0007804 315.9908  44.0706 15.22976359 91781,2021-059F,48884,6875.006,94.552,502.236,491.506,0,2023/4/23
GENERATED VIA SPACETRACK.ORG API,18 SPCS,48884,SPACEBEE-101,PAYLOAD,U,21059F,2023/2/22 7:36,844736,15.22997779,0.000782,97.5793,188.0258,314.7592,45.3007,0,999,9184,0.001147,0.00026993,0,3824148,0 SPACEBEE-101,1 48884U 21059F   23053.31672274  .00026993  00000-0  11470-2 0  9998,2 48884  97.5793 188.0258 0007820 314.7592  45.3007 15.22997779 91843,2021-059F,48884,6874.941,94.55,502.183,491.43,0,2023/4/24
GENERATED VIA SPACETRACK.ORG API,18 SPCS,48884,SPACEBEE-101,PAYLOAD,U,21059F,2023/2/22 21:47,985536,15.23033095,0.0007741,97.5794,188.6223,312.6069,47.4514,0,999,9193,0.0011851,0.00027925,0,3825529,0 SPACEBEE-101,1 48884U 21059F   23053.90803224  .00027925  00000-0  11851-2 0  9993,2 48884  97.5794 188.6223 0007741 312.6069  47.4514 15.23033095 91939,2021-059F,48884,6874.835,94.548,502.022,491.378,0,2023/4/25
